{"type":"FeatureCollection","metadata":{"generated":1785610038000,"url":"https://earthquake.usgs.gov/fdsnws/event/1/query?format=geojson&starttime=2000-01-01T00%3A00%3A00&endtime=2026-01-01T00%3A00%3A00&latitude=34.94591&longitude=-106.4572&minradius=25.0&maxradius=35.0&mindepth=10&maxdepth=70&minmagnitude=6.0&orderby=magnitude&limit=200","title":"USGS Earthquakes","status":200,"api":"2.7.0","limit":200,"offset":1},"features":[{"type":"Feature","properties":{"mag":7.8,"place":"206 km SW of Prince Rupert, Canada","time":1351393448820,"updated":1683841767670,"tz":null,"url":"https://earthquake.usgs.gov/earthquakes/eventpage/usp000juhz","detail":"https://earthquake.usgs.gov/fdsnws/event/1/query?eventid=usp000juhz&format=geojson","felt":1643,"cdi":5,"mmi":6.897,"alert":null,"status":"reviewed","tsunami":0,"sig":1436,"net":"us","code":"p000juhz","ids":",usp000juhz,usb000df7n,choy20121028030408,iscgem603860908,atlas20121028030408,","sources":",us,us,choy,iscgem,atlas,","types":",associate,dyfi,finite-fault,focal-mechanism,general-text,ground-failure,impact-text,moment-tensor,origin,phase-data,poster,shakemap,","nst":807,"dmin":null,"rms":0.99,"gap":42.7,"magType":"mww","type":"earthquake","title":"M 7.8 - 206 km SW of Prince Rupert, Canada"},"geometry":{"type":"Point","coordinates":[-132.101,52.788,14]},"id":"usp000juhz"},
{"type":"Feature","properties":{"mag":7.7,"place":"28 km SSW of Puerto El Triunfo, El Salvador","time":979407212380,"updated":1651259073753,"tz":null,"url":"https://earthquake.usgs.gov/earthquakes/eventpage/usp000a7m5","detail":"https://earthquake.usgs.gov/fdsnws/event/1/query?eventid=usp000a7m5&format=geojson","felt":null,"cdi":null,"mmi":7.596,"alert":null,"status":"reviewed","tsunami":0,"sig":912,"net":"us","code":"p000a7m5","ids":",usp000a7m5,choy20010113173332,gcmtc011301c,gcmt20010113173332,duputel011301c,atlas20010113173331,iscgem1763440,","sources":",us,choy,gcmt,gcmt,duputel,atlas,iscgem,","types":",finite-fault,focal-mechanism,general-text,ground-failure,impact-text,moment-tensor,origin,phase-data,shakemap,trump-shakemap,","nst":427,"dmin":null,"rms":1.13,"gap":null,"magType":"mwc","type":"earthquake","title":"M 7.7 - 28 km SSW of Puerto El Triunfo, El Salvador"},"geometry":{"type":"Point","coordinates":[-88.66,13.049,60]},"id":"usp000a7m5"},
{"type":"Feature","properties":{"mag":7.7,"place":"123 km NNW of Lucea, Jamaica","time":1580238624918,"updated":1766428039786,"tz":null,"url":"https://earthquake.usgs.gov/earthquakes/eventpage/us60007idc","detail":"https://earthquake.usgs.gov/fdsnws/event/1/query?eventid=us60007idc&format=geojson","felt":1052,"cdi":9,"mmi":6.042,"alert":"yellow","status":"reviewed","tsunami":1,"sig":1812,"net":"us","code":"60007idc","ids":",pt20028001,us60007idc,at00q4ttp1,iscgem617210084,","sources":",pt,us,at,iscgem,","types":",dyfi,finite-fault,general-text,ground-failure,impact-link,impact-text,losspager,losspager-admin,moment-tensor,origin,phase-data,poster,shakemap,","nst":null,"dmin":1.657,"rms":0.75,"gap":26,"magType":"mww","type":"earthquake","title":"M 7.7 - 123 km NNW of Lucea, Jamaica"},"geometry":{"type":"Point","coordinates":[-78.756,19.4193,14.86]},"id":"us60007idc"},
{"type":"Feature","properties":{"mag":7.6,"place":"210 km SSW of George Town, Cayman Islands","time":1739056994697,"updated":1745682709572,"tz":null,"url":"https://earthquake.usgs.gov/earthquakes/eventpage/us7000pcdl","detail":"https://earthquake.usgs.gov/fdsnws/event/1/query?eventid=us7000pcdl&format=geojson","felt":402,"cdi":7.3,"mmi":4.949,"alert":"green","status":"reviewed","tsunami":1,"sig":1182,"net":"us","code":"7000pcdl","ids":",pt25039000,at00sre0yr,us7000pcdl,usauto7000pcdl,","sources":",pt,at,us,usauto,","types":",dyfi,finite-fault,general-text,ground-failure,impact-link,impact-text,internal-moment-tensor,internal-origin,losspager,moment-tensor,origin,phase-data,shakemap,","nst":235,"dmin":4.662,"rms":0.62,"gap":18,"magType":"mww","type":"earthquake","title":"M 7.6 - 210 km SSW of George Town, Cayman Islands"},"geometry":{"type":"Point","coordinates":[-82.395,17.6506,14.326]},"id":"us7000pcdl"},
{"type":"Feature","properties":{"mag":7.6,"place":"11 km ENE of Hojancha, Costa Rica","time":1346856127800,"updated":1735890181170,"tz":null,"url":"https://earthquake.usgs.gov/earthquakes/eventpage/usp000jrsw","detail":"https://earthquake.usgs.gov/fdsnws/event/1/query?eventid=usp000jrsw&format=geojson","felt":769,"cdi":8.2,"mmi":7.172,"alert":null,"status":"reviewed","tsunami":0,"sig":1519,"net":"us","code":"p000jrsw","ids":",usp000jrsw,usc000cfsd,choy20120905144207,atlas20120905144207,iscgem601675877,","sources":",us,us,choy,atlas,iscgem,","types":",associate,dyfi,finite-fault,focal-mechanism,general-text,ground-failure,impact-text,moment-tensor,origin,phase-data,poster,shakemap,trump-shakemap,","nst":703,"dmin":null,"rms":1.2,"gap":34.3,"magType":"mww","type":"earthquake","title":"M 7.6 - 11 km ENE of Hojancha, Costa Rica"},"geometry":{"type":"Point","coordinates":[-85.315,10.085,35]},"id":"usp000jrsw"},
{"type":"Feature","properties":{"mag":7.5,"place":"203 km NNE of Barra Patuca, Honduras","time":1515552693290,"updated":1651603488043,"tz":null,"url":"https://earthquake.usgs.gov/earthquakes/eventpage/us1000c2zy","detail":"https://earthquake.usgs.gov/fdsnws/event/1/query?eventid=us1000c2zy&format=geojson","felt":913,"cdi":8.3,"mmi":5.425,"alert":"green","status":"reviewed","tsunami":1,"sig":1623,"net":"us","code":"1000c2zy","ids":",at00p2bjxw,pt18010000,us1000c2zy,iscgem611634051,","sources":",at,pt,us,iscgem,","types":",dyfi,finite-fault,general-link,general-text,impact-link,impact-text,losspager,moment-tensor,origin,phase-data,poster,shakemap,","nst":null,"dmin":4.581,"rms":0.82,"gap":12,"magType":"mww","type":"earthquake","title":"M 7.5 - 203 km NNE of Barra Patuca, Honduras"},"geometry":{"type":"Point","coordinates":[-83.52,17.4825,19]},"id":"us1000c2zy"},
{"type":"Feature","properties":{"mag":7.3,"place":"126 km S of Puerto El Triunfo, El Salvador","time":1346042239430,"updated":1651592895643,"tz":null,"url":"https://earthquake.usgs.gov/earthquakes/eventpage/usp000jqvm","detail":"https://earthquake.usgs.gov/fdsnws/event/1/query?eventid=usp000jqvm&format=geojson","felt":334,"cdi":5.2,"mmi":4.941,"alert":null,"status":"reviewed","tsunami":0,"sig":994,"net":"us","code":"p000jqvm","ids":",usp000jqvm,usc000c7yw,choy20120827043719,iscgem601626911,atlas20120827043719,","sources":",us,us,choy,iscgem,atlas,","types":",associate,dyfi,finite-fault,focal-mechanism,general-text,impact-text,moment-tensor,origin,phase-data,poster,shakemap,","nst":417,"dmin":null,"rms":1.3,"gap":37,"magType":"mww","type":"earthquake","title":"M 7.3 - 126 km S of Puerto El Triunfo, El Salvador"},"geometry":{"type":"Point","coordinates":[-88.59,12.139,28]},"id":"usp000jqvm"},
{"type":"Feature","properties":{"mag":7.3,"place":"46 km NW of Guanaja, Honduras","time":1243499086560,"updated":1751569871454,"tz":null,"url":"https://earthquake.usgs.gov/earthquakes/eventpage/usp000gxkj","detail":"https://earthquake.usgs.gov/fdsnws/event/1/query?eventid=usp000gxkj&format=geojson","felt":1446,"cdi":7.4,"mmi":7.848,"alert":null,"status":"reviewed","tsunami":0,"sig":1560,"net":"us","code":"p000gxkj","ids":",us2009heak,usp000gxkj,choy20090528082445,gcmtc200905280824a,duputel200905280824a,gcmt20090528082445,atlas20090528082445,iscgem12867661,","sources":",us,us,choy,gcmt,duputel,gcmt,atlas,iscgem,","types":",associate,dyfi,focal-mechanism,general-text,ground-failure,impact-text,moment-tensor,origin,phase-data,poster,shakemap,trump-shakemap,","nst":464,"dmin":null,"rms":1.12,"gap":27.2,"magType":"mwc","type":"earthquake","title":"M 7.3 - 46 km NW of Guanaja, Honduras"},"geometry":{"type":"Point","coordinates":[-86.217,16.731,19]},"id":"usp000gxkj"},
{"type":"Feature","properties":{"mag":7.3,"place":"74 km S of Intipucá, El Salvador","time":1413258694460,"updated":1740024261848,"tz":null,"url":"https://earthquake.usgs.gov/earthquakes/eventpage/usb000slwn","detail":"https://earthquake.usgs.gov/fdsnws/event/1/query?eventid=usb000slwn&format=geojson","felt":217,"cdi":7.5,"mmi":6.312,"alert":"yellow","status":"reviewed","tsunami":1,"sig":983,"net":"us","code":"b000slwn","ids":",usb000slwn,pt14287000,at00ndf1fr,iscgem610573069,atlas20141014035134,","sources":",us,pt,at,iscgem,atlas,","types":",associate,cap,dyfi,finite-fault,general-text,impact-link,impact-text,losspager,moment-tensor,origin,phase-data,poster,shakemap,","nst":null,"dmin":1.078,"rms":0.7,"gap":18,"magType":"mww","type":"earthquake","title":"M 7.3 - 74 km S of Intipucá, El Salvador"},"geometry":{"type":"Point","coordinates":[-88.1225,12.5262,40]},"id":"usb000slwn"},
{"type":"Feature","properties":{"mag":7.2,"place":"Nippes, Haiti","time":1628944148454,"updated":1770843486524,"tz":null,"url":"https://earthquake.usgs.gov/earthquakes/eventpage/us6000f65h","detail":"https://earthquake.usgs.gov/fdsnws/event/1/query?eventid=us6000f65h&format=geojson","felt":366,"cdi":9.1,"mmi":8.425,"alert":"red","status":"reviewed","tsunami":1,"sig":2333,"net":"us","code":"6000f65h","ids":",at00qxtxcn,pt21226002,us6000f65h,usauto6000f65h,iscgem620986707,","sources":",at,pt,us,usauto,iscgem,","types":",dyfi,earthquake-name,finite-fault,general-text,ground-failure,impact-link,impact-text,internal-moment-tensor,internal-origin,losspager,moment-tensor,origin,phase-data,shakemap,","nst":null,"dmin":1.178,"rms":0.75,"gap":23,"magType":"mww","type":"earthquake","title":"M 7.2 - Nippes, Haiti"},"geometry":{"type":"Point","coordinates":[-73.4822,18.4335,10]},"id":"us6000f65h"},
{"type":"Feature","properties":{"mag":7,"place":"2025 Hubbard Glacier Earthquake","time":1765053709288,"updated":1785012718556,"tz":null,"url":"https://earthquake.usgs.gov/earthquakes/eventpage/us6000rsy1","detail":"https://earthquake.usgs.gov/fdsnws/event/1/query?eventid=us6000rsy1&format=geojson","felt":1058,"cdi":6.3,"mmi":8.443,"alert":"green","status":"reviewed","tsunami":1,"sig":1384,"net":"us","code":"6000rsy1","ids":",ak2025xzwiky,us6000rsy1,at00t6v85n,pt25340000,usauto6000rsy1,","sources":",ak,us,at,pt,usauto,","types":",dyfi,earthquake-name,event-sequence,finite-fault,general-text,ground-failure,impact-link,impact-text,internal-moment-tensor,internal-origin,losspager,moment-tensor,oaf,origin,phase-data,shakemap,trump-origin,","nst":270,"dmin":0.417,"rms":0.76,"gap":29,"magType":"mww","type":"earthquake","title":"M 7.0 - 2025 Hubbard Glacier Earthquake"},"geometry":{"type":"Point","coordinates":[-139.5412,60.3127,10.317]},"id":"us6000rsy1"},
{"type":"Feature","properties":{"mag":7,"place":"43 km SSW of Masachapa, Nicaragua","time":1097357213690,"updated":1651512621015,"tz":null,"url":"https://earthquake.usgs.gov/earthquakes/eventpage/usp000d63h","detail":"https://earthquake.usgs.gov/fdsnws/event/1/query?eventid=usp000d63h&format=geojson","felt":null,"cdi":null,"mmi":6.044,"alert":null,"status":"reviewed","tsunami":0,"sig":754,"net":"us","code":"p000d63h","ids":",choy20041009212653,gcmtc100904e,usp000d63h,duputel100904e,gcmt20041009212653,atlas20041009212653,iscgem7417181,","sources":",choy,gcmt,us,duputel,gcmt,atlas,iscgem,","types":",focal-mechanism,general-text,impact-text,moment-tensor,origin,phase-data,poster,shakemap,trump-shakemap,","nst":441,"dmin":null,"rms":1.1,"gap":32.2,"magType":"mwc","type":"earthquake","title":"M 7.0 - 43 km SSW of Masachapa, Nicaragua"},"geometry":{"type":"Point","coordinates":[-86.665,11.422,35]},"id":"usp000d63h"},
{"type":"Feature","properties":{"mag":7,"place":"10 km SE of Léogâne, Haiti","time":1263333190060,"updated":1759250458902,"tz":null,"url":"https://earthquake.usgs.gov/earthquakes/eventpage/usp000h60h","detail":"https://earthquake.usgs.gov/fdsnws/event/1/query?eventid=usp000h60h&format=geojson","felt":960,"cdi":9.1,"mmi":9.022,"alert":null,"status":"reviewed","tsunami":0,"sig":1627,"net":"us","code":"p000h60h","ids":",us2010rja6,usp000h60h,choy20100112215310,gcmtc201001122153a,duputel201001122153a,gcmt20100112215310,atlas20100112215310,iscgem14226221,","sources":",us,us,choy,gcmt,duputel,gcmt,atlas,iscgem,","types":",associate,dyfi,focal-mechanism,general-link,general-text,ground-failure,impact-text,moment-tensor,origin,phase-data,poster,scitech-link,shakemap,trump-shakemap,","nst":500,"dmin":null,"rms":0.97,"gap":22.7,"magType":"mwc","type":"earthquake","title":"M 7.0 - 10 km SE of Léogâne, Haiti"},"geometry":{"type":"Point","coordinates":[-72.571,18.443,13]},"id":"usp000h60h"},
{"type":"Feature","properties":{"mag":6.9,"place":"156 km SSW of Puerto El Triunfo, El Salvador","time":1480013027710,"updated":1651607391611,"tz":null,"url":"https://earthquake.usgs.gov/earthquakes/eventpage/us10007c4w","detail":"https://earthquake.usgs.gov/fdsnws/event/1/query?eventid=us10007c4w&format=geojson","felt":226,"cdi":5.4,"mmi":4.23,"alert":"green","status":"reviewed","tsunami":1,"sig":855,"net":"us","code":"10007c4w","ids":",pt16329050,at00oh5td3,us10007c4w,iscgem615068943,","sources":",pt,at,us,iscgem,","types":",cap,dyfi,impact-link,impact-text,losspager,moment-tensor,origin,phase-data,shakemap,","nst":null,"dmin":1.796,"rms":1.02,"gap":20,"magType":"mww","type":"earthquake","title":"M 6.9 - 156 km SSW of Puerto El Triunfo, El Salvador"},"geometry":{"type":"Point","coordinates":[-88.8968,11.9097,10]},"id":"us10007c4w"},
{"type":"Feature","properties":{"mag":6.8,"place":"42 km SSW of Bartolomé Masó, Cuba","time":1731257390426,"updated":1737748290040,"tz":null,"url":"https://earthquake.usgs.gov/earthquakes/eventpage/us7000nr0v","detail":"https://earthquake.usgs.gov/fdsnws/event/1/query?eventid=us7000nr0v&format=geojson","felt":148,"cdi":7.7,"mmi":7.498,"alert":"yellow","status":"reviewed","tsunami":1,"sig":825,"net":"us","code":"7000nr0v","ids":",at00smqurd,pt24315001,us7000nr0v,usauto7000nr0v,","sources":",at,pt,us,usauto,","types":",dyfi,finite-fault,general-text,ground-failure,impact-link,impact-text,internal-moment-tensor,internal-origin,losspager,moment-tensor,origin,phase-data,shakemap,","nst":90,"dmin":0.624,"rms":0.91,"gap":25,"magType":"mww","type":"earthquake","title":"M 6.8 - 42 km SSW of Bartolomé Masó, Cuba"},"geometry":{"type":"Point","coordinates":[-77.0506,19.7974,14]},"id":"us7000nr0v"},
{"type":"Feature","properties":{"mag":6.8,"place":"28 km SW of Puerto San José, Guatemala","time":1498134663490,"updated":1651604388269,"tz":null,"url":"https://earthquake.usgs.gov/earthquakes/eventpage/us20009p1a","detail":"https://earthquake.usgs.gov/fdsnws/event/1/query?eventid=us20009p1a&format=geojson","felt":512,"cdi":6.3,"mmi":5.952,"alert":"yellow","status":"reviewed","tsunami":1,"sig":1034,"net":"us","code":"20009p1a","ids":",us20009p1a,pt17173000,at00ory83s,iscgem611834165,","sources":",us,pt,at,iscgem,","types":",dyfi,general-text,impact-link,losspager,moment-tensor,origin,phase-data,shakemap,","nst":null,"dmin":1.065,"rms":1.46,"gap":38,"magType":"mww","type":"earthquake","title":"M 6.8 - 28 km SW of Puerto San José, Guatemala"},"geometry":{"type":"Point","coordinates":[-90.9718,13.7174,38.12]},"id":"us20009p1a"},
{"type":"Feature","properties":{"mag":6.8,"place":"36 km S of George Town, Cayman Islands","time":1103066413360,"updated":1657825835979,"tz":null,"url":"https://earthquake.usgs.gov/earthquakes/eventpage/usp000daqt","detail":"https://earthquake.usgs.gov/fdsnws/event/1/query?eventid=usp000daqt&format=geojson","felt":272,"cdi":5.4,"mmi":6.002,"alert":null,"status":"reviewed","tsunami":0,"sig":858,"net":"us","code":"p000daqt","ids":",us2004sadb,usp000daqt,choy20041214232013,gcmtc121404b,duputel121404b,gcmt20041214232013,iscgem7448625,atlas20041214232013,","sources":",us,us,choy,gcmt,duputel,gcmt,iscgem,atlas,","types":",associate,dyfi,focal-mechanism,impact-text,moment-tensor,origin,phase-data,shakemap,trump-shakemap,","nst":639,"dmin":null,"rms":1.04,"gap":21.8,"magType":"mwb","type":"earthquake","title":"M 6.8 - 36 km S of George Town, Cayman Islands"},"geometry":{"type":"Point","coordinates":[-81.409,18.958,10]},"id":"usp000daqt"},
{"type":"Feature","properties":{"mag":6.8,"place":"98 km WSW of Craig, Alaska","time":1088416191366,"updated":1657655948027,"tz":null,"url":"https://earthquake.usgs.gov/earthquakes/eventpage/ak00489udzds","detail":"https://earthquake.usgs.gov/fdsnws/event/1/query?eventid=ak00489udzds&format=geojson","felt":199,"cdi":5.1,"mmi":null,"alert":null,"status":"reviewed","tsunami":0,"sig":813,"net":"ak","code":"00489udzds","ids":",usp000cz21,us2004kgak,ak00489udzds,choy20040628094947,gcmtc062804c,gcmt20040628094947,duputel062804c,iscgem7361494,","sources":",us,us,ak,choy,gcmt,gcmt,duputel,iscgem,","types":",associate,dyfi,focal-mechanism,impact-text,moment-tensor,origin,phase-data,","nst":null,"dmin":null,"rms":1.72,"gap":null,"magType":"mw","type":"earthquake","title":"M 6.8 - 98 km WSW of Craig, Alaska"},"geometry":{"type":"Point","coordinates":[-134.5324,55.0721,19.9]},"id":"ak00489udzds"},
{"type":"Feature","properties":{"mag":6.7,"place":"43 km SSE of Iztapa, Guatemala","time":1181762980180,"updated":1657778975259,"tz":null,"url":"https://earthquake.usgs.gov/earthquakes/eventpage/usp000fdyv","detail":"https://earthquake.usgs.gov/fdsnws/event/1/query?eventid=usp000fdyv&format=geojson","felt":439,"cdi":6.4,"mmi":5.97,"alert":null,"status":"reviewed","tsunami":0,"sig":972,"net":"us","code":"p000fdyv","ids":",usp000fdyv,us2007dnbi,choy20070613192940,gcmtc200706131929a,duputel200706131929a,gcmt20070613192940,iscgem12679447,atlas20070613192940,","sources":",us,us,choy,gcmt,duputel,gcmt,iscgem,atlas,","types":",associate,dyfi,focal-mechanism,impact-text,moment-tensor,origin,phase-data,shakemap,trump-shakemap,","nst":468,"dmin":null,"rms":1.09,"gap":37.7,"magType":"mwc","type":"earthquake","title":"M 6.7 - 43 km SSE of Iztapa, Guatemala"},"geometry":{"type":"Point","coordinates":[-90.618,13.554,23]},"id":"usp000fdyv"},
{"type":"Feature","properties":{"mag":6.6,"place":"55 km WSW of Masachapa, Nicaragua","time":1650526966508,"updated":1656206426040,"tz":null,"url":"https://earthquake.usgs.gov/earthquakes/eventpage/us6000hf75","detail":"https://earthquake.usgs.gov/fdsnws/event/1/query?eventid=us6000hf75&format=geojson","felt":159,"cdi":5.8,"mmi":5.339,"alert":"green","status":"reviewed","tsunami":1,"sig":762,"net":"us","code":"6000hf75","ids":",at00raoirb,pt22111000,us6000hf75,usauto6000hf75,","sources":",at,pt,us,usauto,","types":",dyfi,ground-failure,impact-link,impact-text,internal-moment-tensor,internal-origin,losspager,moment-tensor,origin,phase-data,shakemap,","nst":null,"dmin":0.914,"rms":0.69,"gap":94,"magType":"mww","type":"earthquake","title":"M 6.6 - 55 km WSW of Masachapa, Nicaragua"},"geometry":{"type":"Point","coordinates":[-86.9604,11.5537,27]},"id":"us6000hf75"},
{"type":"Feature","properties":{"mag":6.6,"place":"32 km W of San Juan del Sur, Nicaragua","time":1120270603700,"updated":1657813223419,"tz":null,"url":"https://earthquake.usgs.gov/earthquakes/eventpage/usp000dubj","detail":"https://earthquake.usgs.gov/fdsnws/event/1/query?eventid=usp000dubj&format=geojson","felt":86,"cdi":5.7,"mmi":5.345,"alert":null,"status":"reviewed","tsunami":0,"sig":719,"net":"us","code":"p000dubj","ids":",usp000dubj,us2005aaad,duputel200507020216a,choy20050702021643,gcmtc200507020216a,iscgem7362817,atlas20050702021643,","sources":",us,us,duputel,choy,gcmt,iscgem,atlas,","types":",associate,disassociate,dyfi,focal-mechanism,impact-text,moment-tensor,origin,phase-data,shakemap,trump-shakemap,","nst":446,"dmin":null,"rms":1.12,"gap":21.1,"magType":"mwc","type":"earthquake","title":"M 6.6 - 32 km W of San Juan del Sur, Nicaragua"},"geometry":{"type":"Point","coordinates":[-86.172,11.245,27]},"id":"usp000dubj"},
{"type":"Feature","properties":{"mag":6.6,"place":"5 km S of Cojutepeque, El Salvador","time":982074125820,"updated":1651259237625,"tz":null,"url":"https://earthquake.usgs.gov/earthquakes/eventpage/usp000a9jv","detail":"https://earthquake.usgs.gov/fdsnws/event/1/query?eventid=usp000a9jv&format=geojson","felt":null,"cdi":null,"mmi":7.504,"alert":null,"status":"reviewed","tsunami":0,"sig":670,"net":"us","code":"p000a9jv","ids":",choy20010213142205,gcmtc021301b,usp000a9jv,gcmt20010213142205,duputel021301b,atlas20010213142207,iscgem1780618,","sources":",choy,gcmt,us,gcmt,duputel,atlas,iscgem,","types":",focal-mechanism,ground-failure,impact-text,moment-tensor,origin,phase-data,shakemap,trump-shakemap,","nst":273,"dmin":null,"rms":1.44,"gap":null,"magType":"mwc","type":"earthquake","title":"M 6.6 - 5 km S of Cojutepeque, El Salvador"},"geometry":{"type":"Point","coordinates":[-88.938,13.671,10]},"id":"usp000a9jv"},
{"type":"Feature","properties":{"mag":6.6,"place":"32 km S of La Libertad, El Salvador","time":1559207012337,"updated":1766429687868,"tz":null,"url":"https://earthquake.usgs.gov/earthquakes/eventpage/us70003t2n","detail":"https://earthquake.usgs.gov/fdsnws/event/1/query?eventid=us70003t2n&format=geojson","felt":301,"cdi":7.2,"mmi":6.174,"alert":"yellow","status":"reviewed","tsunami":1,"sig":887,"net":"us","code":"70003t2n","ids":",at00psb7tv,pt19150000,us70003t2n,iscgem620129901,","sources":",at,pt,us,iscgem,","types":",dyfi,ground-failure,impact-link,impact-text,losspager,moment-tensor,origin,phase-data,shakemap,","nst":null,"dmin":1.193,"rms":0.83,"gap":22,"magType":"mww","type":"earthquake","title":"M 6.6 - 32 km S of La Libertad, El Salvador"},"geometry":{"type":"Point","coordinates":[-89.3056,13.1994,57.92]},"id":"us70003t2n"},
{"type":"Feature","properties":{"mag":6.6,"place":"22 km ESE of Punta de Burica, Panama","time":1418028892520,"updated":1658915952281,"tz":null,"url":"https://earthquake.usgs.gov/earthquakes/eventpage/usc000t4iq","detail":"https://earthquake.usgs.gov/fdsnws/event/1/query?eventid=usc000t4iq&format=geojson","felt":59,"cdi":6.5,"mmi":5.994,"alert":"green","status":"reviewed","tsunami":1,"sig":709,"net":"us","code":"c000t4iq","ids":",pt14342000,at00ng9a3m,usc000t4iq,iscgem608396645,atlas20141208085452,","sources":",pt,at,us,iscgem,atlas,","types":",cap,dyfi,impact-link,impact-text,losspager,moment-tensor,origin,phase-data,shakemap,","nst":null,"dmin":2.485,"rms":1.01,"gap":43,"magType":"mww","type":"earthquake","title":"M 6.6 - 22 km ESE of Punta de Burica, Panama"},"geometry":{"type":"Point","coordinates":[-82.6865,7.9401,20]},"id":"usc000t4iq"},
{"type":"Feature","properties":{"mag":6.5,"place":"80 km SW of Jiquilillo, Nicaragua","time":1632304627023,"updated":1766441804163,"tz":null,"url":"https://earthquake.usgs.gov/earthquakes/eventpage/us7000fdds","detail":"https://earthquake.usgs.gov/fdsnws/event/1/query?eventid=us7000fdds&format=geojson","felt":48,"cdi":7,"mmi":4.701,"alert":"green","status":"reviewed","tsunami":1,"sig":684,"net":"us","code":"7000fdds","ids":",pt21265000,at00qztyb6,us7000fdds,usauto7000fdds,iscgem621094948,","sources":",pt,at,us,usauto,iscgem,","types":",dyfi,ground-failure,impact-link,internal-moment-tensor,internal-origin,losspager,moment-tensor,origin,phase-data,shakemap,","nst":null,"dmin":0.993,"rms":1.07,"gap":114,"magType":"mww","type":"earthquake","title":"M 6.5 - 80 km SW of Jiquilillo, Nicaragua"},"geometry":{"type":"Point","coordinates":[-87.8647,12.1396,21]},"id":"us7000fdds"},
{"type":"Feature","properties":{"mag":6.5,"place":"3 km SSE of Progreso, Panama","time":1072336271590,"updated":1651510616063,"tz":null,"url":"https://earthquake.usgs.gov/earthquakes/eventpage/usp000cfzw","detail":"https://earthquake.usgs.gov/fdsnws/event/1/query?eventid=usp000cfzw&format=geojson","felt":null,"cdi":null,"mmi":6.036,"alert":null,"status":"reviewed","tsunami":0,"sig":650,"net":"us","code":"p000cfzw","ids":",choy20031225071111,gcmtc122503a,usp000cfzw,gcmt20031225071111,atlas20031225071113,iscgem7216954,","sources":",choy,gcmt,us,gcmt,atlas,iscgem,","types":",focal-mechanism,impact-text,moment-tensor,origin,phase-data,shakemap,trump-shakemap,","nst":405,"dmin":null,"rms":1.2,"gap":48.4,"magType":"mwb","type":"earthquake","title":"M 6.5 - 3 km SSE of Progreso, Panama"},"geometry":{"type":"Point","coordinates":[-82.824,8.416,33]},"id":"usp000cfzw"},
{"type":"Feature","properties":{"mag":6.5,"place":"14 km SE of Punta de Burica, Panama","time":1028074604610,"updated":1651507488867,"tz":null,"url":"https://earthquake.usgs.gov/earthquakes/eventpage/usp000b923","detail":"https://earthquake.usgs.gov/fdsnws/event/1/query?eventid=usp000b923&format=geojson","felt":null,"cdi":null,"mmi":6.955,"alert":null,"status":"reviewed","tsunami":0,"sig":650,"net":"us","code":"p000b923","ids":",choy20020731001644,gcmtc073102a,usp000b923,gcmt20020731001644,atlas20020731001647,iscgem3232876,","sources":",choy,gcmt,us,gcmt,atlas,iscgem,","types":",focal-mechanism,impact-text,moment-tensor,origin,phase-data,shakemap,trump-shakemap,","nst":533,"dmin":null,"rms":1.21,"gap":null,"magType":"mwc","type":"earthquake","title":"M 6.5 - 14 km SE of Punta de Burica, Panama"},"geometry":{"type":"Point","coordinates":[-82.793,7.929,10]},"id":"usp000b923"},
{"type":"Feature","properties":{"mag":6.5,"place":"33 km S of Puerto San José, Guatemala","time":1043117207740,"updated":1651508629550,"tz":null,"url":"https://earthquake.usgs.gov/earthquakes/eventpage/usp000bnx3","detail":"https://earthquake.usgs.gov/fdsnws/event/1/query?eventid=usp000bnx3&format=geojson","felt":null,"cdi":null,"mmi":5.708,"alert":null,"status":"reviewed","tsunami":0,"sig":650,"net":"us","code":"p000bnx3","ids":",choy20030121024647,gcmtc012103b,usp000bnx3,gcmt20030121024647,atlas20030121024649,iscgem6540775,","sources":",choy,gcmt,us,gcmt,atlas,iscgem,","types":",focal-mechanism,impact-text,moment-tensor,origin,phase-data,shakemap,trump-shakemap,","nst":316,"dmin":null,"rms":0.99,"gap":null,"magType":"mwc","type":"earthquake","title":"M 6.5 - 33 km S of Puerto San José, Guatemala"},"geometry":{"type":"Point","coordinates":[-90.774,13.626,24]},"id":"usp000bnx3"},
{"type":"Feature","properties":{"mag":6.5,"place":"18 km W of Parrita, Costa Rica","time":1510540103680,"updated":1770748303966,"tz":null,"url":"https://earthquake.usgs.gov/earthquakes/eventpage/us2000bmhe","detail":"https://earthquake.usgs.gov/fdsnws/event/1/query?eventid=us2000bmhe&format=geojson","felt":582,"cdi":7.8,"mmi":7.521,"alert":"green","status":"reviewed","tsunami":1,"sig":1104,"net":"us","code":"2000bmhe","ids":",at00ozc47b,pt17317000,us2000bmhe,iscgem616640579,","sources":",at,pt,us,iscgem,","types":",dyfi,ground-failure,impact-link,impact-text,losspager,moment-tensor,origin,phase-data,shakemap,","nst":null,"dmin":0.225,"rms":1.25,"gap":37,"magType":"mww","type":"earthquake","title":"M 6.5 - 18 km W of Parrita, Costa Rica"},"geometry":{"type":"Point","coordinates":[-84.4865,9.5147,19.36]},"id":"us2000bmhe"},
{"type":"Feature","properties":{"mag":6.5,"place":"Costa Rica","time":1351039532990,"updated":1651593196776,"tz":null,"url":"https://earthquake.usgs.gov/earthquakes/eventpage/usp000jucg","detail":"https://earthquake.usgs.gov/fdsnws/event/1/query?eventid=usp000jucg&format=geojson","felt":149,"cdi":6.4,"mmi":6.303,"alert":null,"status":"reviewed","tsunami":0,"sig":745,"net":"us","code":"p000jucg","ids":",usb000dc6x,choy20121024004533,usp000jucg,iscgem601844006,atlas20121024004532,","sources":",us,choy,us,iscgem,atlas,","types":",associate,dyfi,focal-mechanism,impact-text,moment-tensor,origin,phase-data,shakemap,","nst":691,"dmin":null,"rms":0.85,"gap":34.4,"magType":"mww","type":"earthquake","title":"M 6.5 - Costa Rica"},"geometry":{"type":"Point","coordinates":[-85.298,10.086,17]},"id":"usp000jucg"},
{"type":"Feature","properties":{"mag":6.5,"place":"44 km W of Masachapa, Nicaragua","time":1371317667810,"updated":1659802697069,"tz":null,"url":"https://earthquake.usgs.gov/earthquakes/eventpage/usc000hrnr","detail":"https://earthquake.usgs.gov/fdsnws/event/1/query?eventid=usc000hrnr&format=geojson","felt":54,"cdi":5.3,"mmi":5.506,"alert":"green","status":"reviewed","tsunami":1,"sig":679,"net":"us","code":"c000hrnr","ids":",usc000hrnr,pt13166002,at00mog3hk,us2013rlau,iscgem603074603,atlas20130615173429,","sources":",us,pt,at,us,iscgem,atlas,","types":",associate,cap,dyfi,focal-mechanism,impact-link,impact-text,losspager,moment-tensor,origin,phase-data,scitech-link,shakemap,trump,","nst":698,"dmin":null,"rms":1.22,"gap":27,"magType":"mww","type":"earthquake","title":"M 6.5 - 44 km W of Masachapa, Nicaragua"},"geometry":{"type":"Point","coordinates":[-86.926,11.763,30]},"id":"usc000hrnr"},
{"type":"Feature","properties":{"mag":6.4,"place":"2 km SE of Puerto Plata, Dominican Republic","time":1064205936240,"updated":1657683865198,"tz":null,"url":"https://earthquake.usgs.gov/earthquakes/eventpage/usp000c89d","detail":"https://earthquake.usgs.gov/fdsnws/event/1/query?eventid=usp000c89d&format=geojson","felt":62,"cdi":7.3,"mmi":6.676,"alert":null,"status":"reviewed","tsunami":0,"sig":675,"net":"us","code":"p000c89d","ids":",us2003yzak,usp000c89d,choy20030922044536,gcmtc092203b,gcmt20030922044536,iscgem7131995,atlas20030922044538,","sources":",us,us,choy,gcmt,gcmt,iscgem,atlas,","types":",associate,dyfi,focal-mechanism,general-text,impact-text,moment-tensor,origin,phase-data,shakemap,trump-shakemap,","nst":494,"dmin":null,"rms":1.06,"gap":31.7,"magType":"mwb","type":"earthquake","title":"M 6.4 - 2 km SE of Puerto Plata, Dominican Republic"},"geometry":{"type":"Point","coordinates":[-70.673,19.777,10]},"id":"usp000c89d"},
{"type":"Feature","properties":{"mag":6.4,"place":"55 km WSW of Ciudad Cortés, Costa Rica","time":1024195574030,"updated":1651507259786,"tz":null,"url":"https://earthquake.usgs.gov/earthquakes/eventpage/usp000b68d","detail":"https://earthquake.usgs.gov/fdsnws/event/1/query?eventid=usp000b68d&format=geojson","felt":null,"cdi":null,"mmi":5.637,"alert":null,"status":"reviewed","tsunami":0,"sig":630,"net":"us","code":"p000b68d","ids":",choy20020616024614,gcmtc061602b,usp000b68d,gcmt20020616024614,atlas20020616024612,iscgem3182836,","sources":",choy,gcmt,us,gcmt,atlas,iscgem,","types":",focal-mechanism,moment-tensor,origin,phase-data,shakemap,trump-shakemap,","nst":424,"dmin":null,"rms":1.08,"gap":null,"magType":"mwc","type":"earthquake","title":"M 6.4 - 55 km WSW of Ciudad Cortés, Costa Rica"},"geometry":{"type":"Point","coordinates":[-83.992,8.784,35]},"id":"usp000b68d"},
{"type":"Feature","properties":{"mag":6.4,"place":"55 km SSE of Sámara, Costa Rica","time":964144415810,"updated":1651257938606,"tz":null,"url":"https://earthquake.usgs.gov/earthquakes/eventpage/usp0009wwb","detail":"https://earthquake.usgs.gov/fdsnws/event/1/query?eventid=usp0009wwb&format=geojson","felt":null,"cdi":null,"mmi":5.261,"alert":null,"status":"reviewed","tsunami":0,"sig":630,"net":"us","code":"p0009wwb","ids":",choy20000721015335,gcmtc072100a,usp0009wwb,gcmt20000721015335,atlas20000721015334,iscgem1738076,","sources":",choy,gcmt,us,gcmt,atlas,iscgem,","types":",focal-mechanism,impact-text,moment-tensor,origin,phase-data,shakemap,trump-shakemap,","nst":467,"dmin":null,"rms":1.13,"gap":null,"magType":"mwc","type":"earthquake","title":"M 6.4 - 55 km SSE of Sámara, Costa Rica"},"geometry":{"type":"Point","coordinates":[-85.329,9.416,33]},"id":"usp0009wwb"},
{"type":"Feature","properties":{"mag":6.4,"place":"17 km SSE of Tejar, Costa Rica","time":1100938042080,"updated":1771087661676,"tz":null,"url":"https://earthquake.usgs.gov/earthquakes/eventpage/usp000d8tf","detail":"https://earthquake.usgs.gov/fdsnws/event/1/query?eventid=usp000d8tf&format=geojson","felt":49,"cdi":7.8,"mmi":6.503,"alert":null,"status":"reviewed","tsunami":0,"sig":668,"net":"us","code":"p000d8tf","ids":",us2004rban,usp000d8tf,choy20041120080722,gcmtc112004d,gcmt20041120080722,iscgem7439089,atlas20041120080722,","sources":",us,us,choy,gcmt,gcmt,iscgem,atlas,","types":",associate,dyfi,focal-mechanism,impact-text,moment-tensor,origin,phase-data,shakemap,trump-shakemap,","nst":530,"dmin":null,"rms":0.92,"gap":31.1,"magType":"mwb","type":"earthquake","title":"M 6.4 - 17 km SSE of Tejar, Costa Rica"},"geometry":{"type":"Point","coordinates":[-84.172,9.602,16]},"id":"usp000d8tf"},
{"type":"Feature","properties":{"mag":6.3,"place":"62 km S of Masachapa, Nicaragua","time":1636439114907,"updated":1766441720188,"tz":null,"url":"https://earthquake.usgs.gov/earthquakes/eventpage/us7000fskw","detail":"https://earthquake.usgs.gov/fdsnws/event/1/query?eventid=us7000fskw&format=geojson","felt":110,"cdi":6.3,"mmi":4.852,"alert":"green","status":"reviewed","tsunami":0,"sig":680,"net":"us","code":"7000fskw","ids":",us7000fskw,usauto7000fskw,at00r2aki7,iscgem635691462,","sources":",us,usauto,at,iscgem,","types":",dyfi,ground-failure,internal-moment-tensor,internal-origin,losspager,moment-tensor,origin,phase-data,shakemap,","nst":null,"dmin":0.962,"rms":0.68,"gap":89,"magType":"mww","type":"earthquake","title":"M 6.3 - 62 km S of Masachapa, Nicaragua"},"geometry":{"type":"Point","coordinates":[-86.5255,11.2198,20]},"id":"us7000fskw"},
{"type":"Feature","properties":{"mag":6.3,"place":"6 km NNW of Cárdenas, Nicaragua","time":1123066995130,"updated":1657811652499,"tz":null,"url":"https://earthquake.usgs.gov/earthquakes/eventpage/usp000dwju","detail":"https://earthquake.usgs.gov/fdsnws/event/1/query?eventid=usp000dwju&format=geojson","felt":21,"cdi":4.6,"mmi":6.589,"alert":null,"status":"reviewed","tsunami":0,"sig":620,"net":"us","code":"p000dwju","ids":",usp000dwju,us2005bham,choy20050803110315,gcmt20050803110315,atlas20050803110314,iscgem8027648,","sources":",us,us,choy,gcmt,atlas,iscgem,","types":",associate,dyfi,focal-mechanism,impact-text,moment-tensor,origin,phase-data,shakemap,trump-shakemap,","nst":454,"dmin":null,"rms":1.16,"gap":37.8,"magType":"mwc","type":"earthquake","title":"M 6.3 - 6 km NNW of Cárdenas, Nicaragua"},"geometry":{"type":"Point","coordinates":[-85.541,11.247,14]},"id":"usp000dwju"},
{"type":"Feature","properties":{"mag":6.3,"place":"34 km SW of Acajutla, El Salvador","time":1100988105660,"updated":1657827499464,"tz":null,"url":"https://earthquake.usgs.gov/earthquakes/eventpage/usp000d8uu","detail":"https://earthquake.usgs.gov/fdsnws/event/1/query?eventid=usp000d8uu&format=geojson","felt":11,"cdi":5,"mmi":5.332,"alert":null,"status":"reviewed","tsunami":0,"sig":616,"net":"us","code":"p000d8uu","ids":",usp000d8uu,us2004rbbk,gcmtc112004f,gcmt20041120220145,atlas20041120220145,iscgem7439387,","sources":",us,us,gcmt,gcmt,atlas,iscgem,","types":",associate,dyfi,focal-mechanism,impact-text,moment-tensor,origin,phase-data,shakemap,trump-shakemap,","nst":448,"dmin":null,"rms":1.18,"gap":29.9,"magType":"mwc","type":"earthquake","title":"M 6.3 - 34 km SW of Acajutla, El Salvador"},"geometry":{"type":"Point","coordinates":[-90.056,13.376,40.6]},"id":"usp000d8uu"},
{"type":"Feature","properties":{"mag":6.3,"place":"11 km W of Puerto Armuelles, Panama","time":1227075080790,"updated":1657835024392,"tz":null,"url":"https://earthquake.usgs.gov/earthquakes/eventpage/usp000gp1c","detail":"https://earthquake.usgs.gov/fdsnws/event/1/query?eventid=usp000gp1c&format=geojson","felt":148,"cdi":6.6,"mmi":6.211,"alert":null,"status":"reviewed","tsunami":0,"sig":708,"net":"us","code":"p000gp1c","ids":",usp000gp1c,us2008zpan,choy20081119061120,gcmtc200811190611a,gcmt20081119061120,atlas20081119061120,iscgem11458361,","sources":",us,us,choy,gcmt,gcmt,atlas,iscgem,","types":",associate,dyfi,focal-mechanism,impact-text,moment-tensor,origin,phase-data,shakemap,trump-shakemap,","nst":359,"dmin":null,"rms":1.16,"gap":35.1,"magType":"mwc","type":"earthquake","title":"M 6.3 - 11 km W of Puerto Armuelles, Panama"},"geometry":{"type":"Point","coordinates":[-82.967,8.267,32]},"id":"usp000gp1c"},
{"type":"Feature","properties":{"mag":6.2,"place":"56 km SSE of La Libertad, El Salvador","time":1736097525784,"updated":1784300743759,"tz":null,"url":"https://earthquake.usgs.gov/earthquakes/eventpage/us6000pi09","detail":"https://earthquake.usgs.gov/fdsnws/event/1/query?eventid=us6000pi09&format=geojson","felt":132,"cdi":5.4,"mmi":5.793,"alert":"green","status":"reviewed","tsunami":0,"sig":663,"net":"us","code":"6000pi09","ids":",us6000pi09,usauto6000pi09,pt25005001,","sources":",us,usauto,pt,","types":",dyfi,ground-failure,impact-text,internal-moment-tensor,internal-origin,losspager,moment-tensor,origin,phase-data,shakemap,","nst":131,"dmin":0.746,"rms":1.19,"gap":79,"magType":"mww","type":"earthquake","title":"M 6.2 - 56 km SSE of La Libertad, El Salvador"},"geometry":{"type":"Point","coordinates":[-89.1775,13.0007,46]},"id":"us6000pi09"},
{"type":"Feature","properties":{"mag":6.2,"place":"40 km WNW of Tamarindo, Costa Rica","time":1728755024516,"updated":1739913762038,"tz":null,"url":"https://earthquake.usgs.gov/earthquakes/eventpage/us6000nyau","detail":"https://earthquake.usgs.gov/fdsnws/event/1/query?eventid=us6000nyau&format=geojson","felt":59,"cdi":4.1,"mmi":5.412,"alert":"green","status":"reviewed","tsunami":0,"sig":616,"net":"us","code":"6000nyau","ids":",us6000nyau,usauto6000nyau,pt24286000,at00sl97x0,","sources":",us,usauto,pt,at,","types":",dyfi,ground-failure,internal-moment-tensor,internal-origin,losspager,moment-tensor,origin,phase-data,shakemap,","nst":221,"dmin":0.889,"rms":0.84,"gap":32,"magType":"mww","type":"earthquake","title":"M 6.2 - 40 km WNW of Tamarindo, Costa Rica"},"geometry":{"type":"Point","coordinates":[-86.1497,10.4967,16]},"id":"us6000nyau"},
{"type":"Feature","properties":{"mag":6.2,"place":"47 km NW of Mosquito Lake, Alaska","time":1493641915590,"updated":1691439781683,"tz":null,"url":"https://earthquake.usgs.gov/earthquakes/eventpage/us10008mel","detail":"https://earthquake.usgs.gov/fdsnws/event/1/query?eventid=us10008mel&format=geojson","felt":728,"cdi":6.1,"mmi":7.577,"alert":"green","status":"reviewed","tsunami":1,"sig":1035,"net":"us","code":"10008mel","ids":",ak15852756,us10008mel,at00op9xh5,ak0175kbcyau,iscgem611833705,","sources":",ak,us,at,ak,iscgem,","types":",associate,dyfi,impact-link,losspager,moment-tensor,origin,phase-data,shakemap,","nst":null,"dmin":0.554,"rms":0.96,"gap":28,"magType":"mww","type":"earthquake","title":"M 6.2 - 47 km NW of Mosquito Lake, Alaska"},"geometry":{"type":"Point","coordinates":[-136.7114,59.8209,10]},"id":"us10008mel"},
{"type":"Feature","properties":{"mag":6.2,"place":"33 km SW of Masachapa, Nicaragua","time":1078199242400,"updated":1651511074950,"tz":null,"url":"https://earthquake.usgs.gov/earthquakes/eventpage/usp000cnw5","detail":"https://earthquake.usgs.gov/fdsnws/event/1/query?eventid=usp000cnw5&format=geojson","felt":null,"cdi":null,"mmi":5.065,"alert":null,"status":"reviewed","tsunami":0,"sig":591,"net":"us","code":"p000cnw5","ids":",choy20040302034722,gcmtc030204a,usp000cnw5,gcmt20040302034722,atlas20040302034722,iscgem7301953,","sources":",choy,gcmt,us,gcmt,atlas,iscgem,","types":",focal-mechanism,impact-text,moment-tensor,origin,phase-data,shakemap,","nst":281,"dmin":null,"rms":1.25,"gap":38.9,"magType":"mwc","type":"earthquake","title":"M 6.2 - 33 km SW of Masachapa, Nicaragua"},"geometry":{"type":"Point","coordinates":[-86.767,11.61,28]},"id":"usp000cnw5"},
{"type":"Feature","properties":{"mag":6.2,"place":"49 km SW of La Cruz, Costa Rica","time":1083200241080,"updated":1651511390118,"tz":null,"url":"https://earthquake.usgs.gov/earthquakes/eventpage/usp000ctpz","detail":"https://earthquake.usgs.gov/fdsnws/event/1/query?eventid=usp000ctpz&format=geojson","felt":null,"cdi":null,"mmi":6.091,"alert":null,"status":"reviewed","tsunami":0,"sig":591,"net":"us","code":"p000ctpz","ids":",choy20040429005721,gcmtc042904b,usp000ctpz,gcmt20040429005721,atlas20040429005722,iscgem7335933,","sources":",choy,gcmt,us,gcmt,atlas,iscgem,","types":",focal-mechanism,impact-text,moment-tensor,origin,phase-data,shakemap,","nst":412,"dmin":null,"rms":1.2,"gap":53.7,"magType":"mwb","type":"earthquake","title":"M 6.2 - 49 km SW of La Cruz, Costa Rica"},"geometry":{"type":"Point","coordinates":[-85.995,10.805,10]},"id":"usp000ctpz"},
{"type":"Feature","properties":{"mag":6.2,"place":"4 km SE of Aserrío de Gariché, Panama","time":1561526631514,"updated":1766427133550,"tz":null,"url":"https://earthquake.usgs.gov/earthquakes/eventpage/us7000455l","detail":"https://earthquake.usgs.gov/fdsnws/event/1/query?eventid=us7000455l&format=geojson","felt":470,"cdi":8.7,"mmi":6.28,"alert":"yellow","status":"reviewed","tsunami":0,"sig":1059,"net":"us","code":"7000455l","ids":",us7000455l,iscgem615973495,","sources":",us,iscgem,","types":",dyfi,general-link,general-text,ground-failure,impact-text,losspager,moment-tensor,origin,phase-data,shakemap,","nst":null,"dmin":0.337,"rms":1.12,"gap":42,"magType":"mww","type":"earthquake","title":"M 6.2 - 4 km SE of Aserrío de Gariché, Panama"},"geometry":{"type":"Point","coordinates":[-82.754,8.4612,32.58]},"id":"us7000455l"},
{"type":"Feature","properties":{"mag":6.2,"place":"78 km SSW of Acajutla, El Salvador","time":1494585686710,"updated":1651604360278,"tz":null,"url":"https://earthquake.usgs.gov/earthquakes/eventpage/us10008rtu","detail":"https://earthquake.usgs.gov/fdsnws/event/1/query?eventid=us10008rtu&format=geojson","felt":57,"cdi":4.8,"mmi":4.25,"alert":"green","status":"reviewed","tsunami":0,"sig":619,"net":"us","code":"10008rtu","ids":",us10008rtu,iscgem611833873,","sources":",us,iscgem,","types":",dyfi,losspager,moment-tensor,origin,phase-data,shakemap,","nst":null,"dmin":1.111,"rms":1.03,"gap":22,"magType":"mww","type":"earthquake","title":"M 6.2 - 78 km SSW of Acajutla, El Salvador"},"geometry":{"type":"Point","coordinates":[-90.0611,12.9187,16]},"id":"us10008rtu"},
{"type":"Feature","properties":{"mag":6.2,"place":"151 km SSW of Hydaburg, Alaska","time":982440690000,"updated":1657657321188,"tz":null,"url":"https://earthquake.usgs.gov/earthquakes/eventpage/usp000a9ts","detail":"https://earthquake.usgs.gov/fdsnws/event/1/query?eventid=usp000a9ts&format=geojson","felt":22,"cdi":3.9,"mmi":null,"alert":null,"status":"reviewed","tsunami":0,"sig":600,"net":"us","code":"p000a9ts","ids":",us2001mqbb,usp000a9ts,gcmtc021701f,gcmt20010217201130,iscgem1780638,","sources":",us,us,gcmt,gcmt,iscgem,","types":",associate,dyfi,focal-mechanism,impact-text,moment-tensor,origin,phase-data,","nst":380,"dmin":null,"rms":null,"gap":null,"magType":"mwc","type":"earthquake","title":"M 6.2 - 151 km SSW of Hydaburg, Alaska"},"geometry":{"type":"Point","coordinates":[-133.61,53.92,20]},"id":"usp000a9ts"},
{"type":"Feature","properties":{"mag":6.2,"place":"108 km NNW of Lucea, Jamaica","time":1170622619130,"updated":1657785618463,"tz":null,"url":"https://earthquake.usgs.gov/earthquakes/eventpage/usp000f49p","detail":"https://earthquake.usgs.gov/fdsnws/event/1/query?eventid=usp000f49p&format=geojson","felt":76,"cdi":4.2,"mmi":null,"alert":null,"status":"reviewed","tsunami":0,"sig":623,"net":"us","code":"p000f49p","ids":",us2007yjay,usp000f49p,gcmtc200702042056a,gcmt20070204205659,iscgem11496486,","sources":",us,us,gcmt,gcmt,iscgem,","types":",associate,dyfi,focal-mechanism,impact-text,moment-tensor,origin,phase-data,","nst":458,"dmin":null,"rms":1.15,"gap":37.3,"magType":"mwb","type":"earthquake","title":"M 6.2 - 108 km NNW of Lucea, Jamaica"},"geometry":{"type":"Point","coordinates":[-78.518,19.372,10]},"id":"usp000f49p"},
{"type":"Feature","properties":{"mag":6.2,"place":"33 km SW of Jiquilillo, Nicaragua","time":1393753074840,"updated":1659823339976,"tz":null,"url":"https://earthquake.usgs.gov/earthquakes/eventpage/usb000mzef","detail":"https://earthquake.usgs.gov/fdsnws/event/1/query?eventid=usb000mzef&format=geojson","felt":53,"cdi":5.9,"mmi":4.641,"alert":"green","status":"reviewed","tsunami":0,"sig":623,"net":"us","code":"b000mzef","ids":",usb000mzef,iscgem604085372,","sources":",us,iscgem,","types":",cap,dyfi,losspager,moment-tensor,origin,phase-data,shakemap,","nst":null,"dmin":0.436,"rms":1.43,"gap":38,"magType":"mww","type":"earthquake","title":"M 6.2 - 33 km SW of Jiquilillo, Nicaragua"},"geometry":{"type":"Point","coordinates":[-87.6879,12.5559,60]},"id":"usb000mzef"},
{"type":"Feature","properties":{"mag":6.1,"place":"56 km SSW of La Libertad, El Salvador","time":1724882274957,"updated":1774546878043,"tz":null,"url":"https://earthquake.usgs.gov/earthquakes/eventpage/us6000nncs","detail":"https://earthquake.usgs.gov/fdsnws/event/1/query?eventid=us6000nncs&format=geojson","felt":105,"cdi":4.6,"mmi":4.853,"alert":"green","status":"reviewed","tsunami":0,"sig":621,"net":"us","code":"6000nncs","ids":",us6000nncs,usauto6000nncs,pt24241000,at00siy7om,","sources":",us,usauto,pt,at,","types":",dyfi,ground-failure,impact-text,internal-moment-tensor,internal-origin,losspager,moment-tensor,origin,phase-data,shakemap,","nst":224,"dmin":0.617,"rms":0.97,"gap":33,"magType":"mww","type":"earthquake","title":"M 6.1 - 56 km SSW of La Libertad, El Salvador"},"geometry":{"type":"Point","coordinates":[-89.583,13.0471,26.358]},"id":"us6000nncs"},
{"type":"Feature","properties":{"mag":6.1,"place":"near the coast of Nicaragua","time":1641486305973,"updated":1650528145242,"tz":null,"url":"https://earthquake.usgs.gov/earthquakes/eventpage/us7000g9nb","detail":"https://earthquake.usgs.gov/fdsnws/event/1/query?eventid=us7000g9nb&format=geojson","felt":56,"cdi":4.4,"mmi":4.644,"alert":"green","status":"reviewed","tsunami":0,"sig":597,"net":"us","code":"7000g9nb","ids":",us7000g9nb,usauto7000g9nb,at00r5aqxv,pt22006001,","sources":",us,usauto,at,pt,","types":",dyfi,ground-failure,internal-moment-tensor,internal-origin,losspager,moment-tensor,origin,phase-data,shakemap,","nst":null,"dmin":0.732,"rms":1.24,"gap":43,"magType":"mww","type":"earthquake","title":"M 6.1 - near the coast of Nicaragua"},"geometry":{"type":"Point","coordinates":[-87.1371,11.9367,17]},"id":"us7000g9nb"},
{"type":"Feature","properties":{"mag":6.1,"place":"42 km SSE of Iztapa, Guatemala","time":1208228584660,"updated":1651524243234,"tz":null,"url":"https://earthquake.usgs.gov/earthquakes/eventpage/usp000g3y3","detail":"https://earthquake.usgs.gov/fdsnws/event/1/query?eventid=usp000g3y3&format=geojson","felt":null,"cdi":null,"mmi":5.118,"alert":null,"status":"reviewed","tsunami":0,"sig":572,"net":"us","code":"p000g3y3","ids":",choy20080415030304,gcmtc200804150303a,usp000g3y3,gcmt20080415030304,atlas20080415030304,iscgem13225108,","sources":",choy,gcmt,us,gcmt,atlas,iscgem,","types":",focal-mechanism,impact-text,moment-tensor,origin,phase-data,shakemap,trump-shakemap,","nst":372,"dmin":null,"rms":1.4,"gap":25.5,"magType":"mwc","type":"earthquake","title":"M 6.1 - 42 km SSE of Iztapa, Guatemala"},"geometry":{"type":"Point","coordinates":[-90.599,13.564,33]},"id":"usp000g3y3"},
{"type":"Feature","properties":{"mag":6.1,"place":"2 km S of Finca Blanco, Panama","time":1075895987690,"updated":1651510920258,"tz":null,"url":"https://earthquake.usgs.gov/earthquakes/eventpage/usp000ckd6","detail":"https://earthquake.usgs.gov/fdsnws/event/1/query?eventid=usp000ckd6&format=geojson","felt":null,"cdi":null,"mmi":6.194,"alert":null,"status":"reviewed","tsunami":0,"sig":572,"net":"us","code":"p000ckd6","ids":",choy20040204115947,gcmtc020404e,usp000ckd6,gcmt20040204115947,atlas20040204115946,iscgem7247563,","sources":",choy,gcmt,us,gcmt,atlas,iscgem,","types":",focal-mechanism,impact-text,moment-tensor,origin,phase-data,shakemap,trump-shakemap,","nst":465,"dmin":null,"rms":0.92,"gap":58.6,"magType":"mwb","type":"earthquake","title":"M 6.1 - 2 km S of Finca Blanco, Panama"},"geometry":{"type":"Point","coordinates":[-82.877,8.358,29.2]},"id":"usp000ckd6"},
{"type":"Feature","properties":{"mag":6.1,"place":"33 km NE of Changuinola, Panama","time":1005266875020,"updated":1651261211663,"tz":null,"url":"https://earthquake.usgs.gov/earthquakes/eventpage/usp000asgv","detail":"https://earthquake.usgs.gov/fdsnws/event/1/query?eventid=usp000asgv&format=geojson","felt":null,"cdi":null,"mmi":6.251,"alert":null,"status":"reviewed","tsunami":0,"sig":572,"net":"us","code":"p000asgv","ids":",choy20011109004755,gcmtc110901a,usp000asgv,gcmt20011109004755,atlas20011109004757,iscgem2331832,","sources":",choy,gcmt,us,gcmt,atlas,iscgem,","types":",focal-mechanism,impact-text,moment-tensor,origin,phase-data,shakemap,trump-shakemap,","nst":449,"dmin":null,"rms":0.94,"gap":null,"magType":"mwc","type":"earthquake","title":"M 6.1 - 33 km NE of Changuinola, Panama"},"geometry":{"type":"Point","coordinates":[-82.3,9.643,10]},"id":"usp000asgv"},
{"type":"Feature","properties":{"mag":6.1,"place":"225 km SSW of Prince Rupert, Canada","time":1002862954000,"updated":1651261033375,"tz":null,"url":"https://earthquake.usgs.gov/earthquakes/eventpage/usp000aqrg","detail":"https://earthquake.usgs.gov/fdsnws/event/1/query?eventid=usp000aqrg&format=geojson","felt":null,"cdi":null,"mmi":null,"alert":null,"status":"reviewed","tsunami":0,"sig":572,"net":"us","code":"p000aqrg","ids":",choy20011012050234,gcmtc101201c,usp000aqrg,gcmt20011012050234,iscgem2152959,","sources":",choy,gcmt,us,gcmt,iscgem,","types":",focal-mechanism,impact-text,moment-tensor,origin,phase-data,","nst":432,"dmin":null,"rms":null,"gap":null,"magType":"mwc","type":"earthquake","title":"M 6.1 - 225 km SSW of Prince Rupert, Canada"},"geometry":{"type":"Point","coordinates":[-132.2,52.63,20]},"id":"usp000aqrg"},
{"type":"Feature","properties":{"mag":6.1,"place":"45 km SSE of Punta de Burica, Panama","time":998704922500,"updated":1651260594733,"tz":null,"url":"https://earthquake.usgs.gov/earthquakes/eventpage/usp000an03","detail":"https://earthquake.usgs.gov/fdsnws/event/1/query?eventid=usp000an03&format=geojson","felt":null,"cdi":null,"mmi":4.653,"alert":null,"status":"reviewed","tsunami":0,"sig":572,"net":"us","code":"p000an03","ids":",choy20010825020202,gcmtc082501a,usp000an03,gcmt20010825020202,iscgem2013435,","sources":",choy,gcmt,us,gcmt,iscgem,","types":",focal-mechanism,moment-tensor,origin,phase-data,shakemap,","nst":422,"dmin":null,"rms":1.01,"gap":null,"magType":"mwc","type":"earthquake","title":"M 6.1 - 45 km SSE of Punta de Burica, Panama"},"geometry":{"type":"Point","coordinates":[-82.766,7.633,24.5]},"id":"usp000an03"},
{"type":"Feature","properties":{"mag":6.1,"place":"24 km S of Zacatecoluca, El Salvador","time":983386213020,"updated":1600452957127,"tz":null,"url":"https://earthquake.usgs.gov/earthquakes/eventpage/usp000aam7","detail":"https://earthquake.usgs.gov/fdsnws/event/1/query?eventid=usp000aam7&format=geojson","felt":null,"cdi":null,"mmi":5.435,"alert":null,"status":"reviewed","tsunami":0,"sig":572,"net":"us","code":"p000aam7","ids":",usp000aam7,atlas20010228185013,","sources":",us,atlas,","types":",impact-text,moment-tensor,origin,phase-data,shakemap,trump-shakemap,","nst":179,"dmin":null,"rms":0.99,"gap":null,"magType":"mwb","type":"earthquake","title":"M 6.1 - 24 km S of Zacatecoluca, El Salvador"},"geometry":{"type":"Point","coordinates":[-88.827,13.283,65.3]},"id":"usp000aam7"},
{"type":"Feature","properties":{"mag":6.1,"place":"59 km NNE of Savannah Bight, Honduras","time":1587024277829,"updated":1766428362180,"tz":null,"url":"https://earthquake.usgs.gov/earthquakes/eventpage/us70008xeb","detail":"https://earthquake.usgs.gov/fdsnws/event/1/query?eventid=us70008xeb&format=geojson","felt":144,"cdi":5.4,"mmi":4.713,"alert":"green","status":"reviewed","tsunami":1,"sig":650,"net":"us","code":"70008xeb","ids":",at00q8vfrr,pt20107000,us70008xeb,iscgem618099931,","sources":",at,pt,us,iscgem,","types":",dyfi,ground-failure,impact-link,internal-origin,losspager,moment-tensor,origin,phase-data,shakemap,","nst":null,"dmin":3.342,"rms":0.97,"gap":30,"magType":"mww","type":"earthquake","title":"M 6.1 - 59 km NNE of Savannah Bight, Honduras"},"geometry":{"type":"Point","coordinates":[-85.6851,16.9591,12]},"id":"us70008xeb"},
{"type":"Feature","properties":{"mag":6.1,"place":"55 km SE of East End, Cayman Islands","time":1580248516450,"updated":1766430326671,"tz":null,"url":"https://earthquake.usgs.gov/earthquakes/eventpage/us60007iig","detail":"https://earthquake.usgs.gov/fdsnws/event/1/query?eventid=us60007iig&format=geojson","felt":72,"cdi":6,"mmi":4.911,"alert":"green","status":"reviewed","tsunami":1,"sig":616,"net":"us","code":"60007iig","ids":",at00q4u7k4,pt20028002,us60007iig,iscgem621407687,","sources":",at,pt,us,iscgem,","types":",dyfi,ground-failure,impact-link,internal-origin,losspager,moment-tensor,origin,phase-data,shakemap,","nst":null,"dmin":3.124,"rms":0.85,"gap":66,"magType":"mww","type":"earthquake","title":"M 6.1 - 55 km SE of East End, Cayman Islands"},"geometry":{"type":"Point","coordinates":[-80.7411,18.9457,10]},"id":"us60007iig"},
{"type":"Feature","properties":{"mag":6.1,"place":"85 km SW of Acajutla, El Salvador","time":1540765433420,"updated":1651606625446,"tz":null,"url":"https://earthquake.usgs.gov/earthquakes/eventpage/us1000hib5","detail":"https://earthquake.usgs.gov/fdsnws/event/1/query?eventid=us1000hib5&format=geojson","felt":3,"cdi":2.2,"mmi":4.15,"alert":"green","status":"reviewed","tsunami":0,"sig":573,"net":"us","code":"1000hib5","ids":",us1000hib5,iscgem613516355,","sources":",us,iscgem,","types":",dyfi,ground-failure,losspager,moment-tensor,origin,phase-data,shakemap,","nst":null,"dmin":1.282,"rms":0.86,"gap":56,"magType":"mww","type":"earthquake","title":"M 6.1 - 85 km SW of Acajutla, El Salvador"},"geometry":{"type":"Point","coordinates":[-90.3687,13.0346,22]},"id":"us1000hib5"},
{"type":"Feature","properties":{"mag":6.1,"place":"19 km NNW of Golfito, Costa Rica","time":1534548144950,"updated":1651607811654,"tz":null,"url":"https://earthquake.usgs.gov/earthquakes/eventpage/us1000gc0k","detail":"https://earthquake.usgs.gov/fdsnws/event/1/query?eventid=us1000gc0k&format=geojson","felt":165,"cdi":7.1,"mmi":6.113,"alert":"green","status":"reviewed","tsunami":0,"sig":690,"net":"us","code":"1000gc0k","ids":",us1000gc0k,iscgem616641680,","sources":",us,iscgem,","types":",dyfi,ground-failure,impact-text,losspager,moment-tensor,origin,phase-data,shakemap,","nst":null,"dmin":0.459,"rms":1.12,"gap":37,"magType":"mww","type":"earthquake","title":"M 6.1 - 19 km NNW of Golfito, Costa Rica"},"geometry":{"type":"Point","coordinates":[-83.1527,8.7791,15]},"id":"us1000gc0k"},
{"type":"Feature","properties":{"mag":6.1,"place":"Nicaragua","time":1465529122920,"updated":1651603974874,"tz":null,"url":"https://earthquake.usgs.gov/earthquakes/eventpage/us200063cy","detail":"https://earthquake.usgs.gov/fdsnws/event/1/query?eventid=us200063cy&format=geojson","felt":120,"cdi":6.6,"mmi":6.315,"alert":"yellow","status":"reviewed","tsunami":0,"sig":729,"net":"us","code":"200063cy","ids":",us200063cy,gcmt20160610032522,iscgem611829948,atlas20160610032522,","sources":",us,gcmt,iscgem,atlas,","types":",cap,dyfi,impact-text,losspager,moment-tensor,origin,phase-data,shakemap,","nst":null,"dmin":0.159,"rms":1.04,"gap":39,"magType":"mww","type":"earthquake","title":"M 6.1 - Nicaragua"},"geometry":{"type":"Point","coordinates":[-86.9633,12.8318,10]},"id":"us200063cy"},
{"type":"Feature","properties":{"mag":6.1,"place":"110 km SSW of Champerico, Guatemala","time":1460729486430,"updated":1651599856910,"tz":null,"url":"https://earthquake.usgs.gov/earthquakes/eventpage/us20005ih9","detail":"https://earthquake.usgs.gov/fdsnws/event/1/query?eventid=us20005ih9&format=geojson","felt":8,"cdi":3.5,"mmi":3.86,"alert":"green","status":"reviewed","tsunami":0,"sig":575,"net":"us","code":"20005ih9","ids":",us20005ih9,gcmt20160415141130,iscgem608555483,","sources":",us,gcmt,iscgem,","types":",cap,dyfi,impact-text,losspager,moment-tensor,origin,phase-data,shakemap,","nst":null,"dmin":1.293,"rms":1.39,"gap":63,"magType":"mww","type":"earthquake","title":"M 6.1 - 110 km SSW of Champerico, Guatemala"},"geometry":{"type":"Point","coordinates":[-92.367,13.4008,22.41]},"id":"us20005ih9"},
{"type":"Feature","properties":{"mag":6.1,"place":"16 km SW of Valle San Francisco, Nicaragua","time":1397172465600,"updated":1659827212177,"tz":null,"url":"https://earthquake.usgs.gov/earthquakes/eventpage/usd0003cqx","detail":"https://earthquake.usgs.gov/fdsnws/event/1/query?eventid=usd0003cqx&format=geojson","felt":8,"cdi":6.3,"mmi":6.473,"alert":"green","status":"reviewed","tsunami":0,"sig":578,"net":"us","code":"d0003cqx","ids":",usd0003cqx,iscgem604451431,atlas20140410232745,","sources":",us,iscgem,atlas,","types":",cap,dyfi,losspager,moment-tensor,origin,phase-data,shakemap,","nst":null,"dmin":1.254,"rms":0.96,"gap":31,"magType":"mww","type":"earthquake","title":"M 6.1 - 16 km SW of Valle San Francisco, Nicaragua"},"geometry":{"type":"Point","coordinates":[-86.3783,12.4029,13]},"id":"usd0003cqx"},
{"type":"Feature","properties":{"mag":6.1,"place":"10 km NNE of Sabanilla, Costa Rica","time":1231442495610,"updated":1781827504124,"tz":null,"url":"https://earthquake.usgs.gov/earthquakes/eventpage/usp000gscg","detail":"https://earthquake.usgs.gov/fdsnws/event/1/query?eventid=usp000gscg&format=geojson","felt":899,"cdi":7.4,"mmi":6.208,"alert":null,"status":"reviewed","tsunami":0,"sig":1238,"net":"us","code":"p000gscg","ids":",us2009bpba,pt09008000,usp000gscg,choy20090108192135,gcmtc200901081921a,gcmt20090108192135,atlas20090108192134,iscgem13962308,","sources":",us,pt,us,choy,gcmt,gcmt,atlas,iscgem,","types":",associate,dyfi,focal-mechanism,general-text,ground-failure,impact-text,moment-tensor,origin,phase-data,poster,shakemap,trump-shakemap,","nst":289,"dmin":null,"rms":0.95,"gap":73.9,"magType":"mwc","type":"earthquake","title":"M 6.1 - 10 km NNE of Sabanilla, Costa Rica"},"geometry":{"type":"Point","coordinates":[-84.197,10.165,14]},"id":"usp000gscg"},
{"type":"Feature","properties":{"mag":6.1,"place":"61 km SSW of Nueva Concepción, Guatemala","time":1417986995740,"updated":1658915771519,"tz":null,"url":"https://earthquake.usgs.gov/earthquakes/eventpage/usc000t4gc","detail":"https://earthquake.usgs.gov/fdsnws/event/1/query?eventid=usc000t4gc&format=geojson","felt":15,"cdi":4.8,"mmi":4.822,"alert":"green","status":"reviewed","tsunami":0,"sig":580,"net":"us","code":"c000t4gc","ids":",usc000t4gc,gcmt20141207211637,iscgem610574412,atlas20141207211635,","sources":",us,gcmt,iscgem,atlas,","types":",cap,dyfi,impact-text,losspager,moment-tensor,origin,phase-data,shakemap,","nst":null,"dmin":0.874,"rms":0.48,"gap":54,"magType":"mww","type":"earthquake","title":"M 6.1 - 61 km SSW of Nueva Concepción, Guatemala"},"geometry":{"type":"Point","coordinates":[-91.4731,13.6717,32]},"id":"usc000t4gc"},
{"type":"Feature","properties":{"mag":6,"place":"88 km SW of Acajutla, El Salvador","time":1755940462210,"updated":1762964738040,"tz":null,"url":"https://earthquake.usgs.gov/earthquakes/eventpage/us6000r3at","detail":"https://earthquake.usgs.gov/fdsnws/event/1/query?eventid=us6000r3at&format=geojson","felt":42,"cdi":5.3,"mmi":5.021,"alert":"green","status":"reviewed","tsunami":0,"sig":576,"net":"us","code":"6000r3at","ids":",us6000r3at,usauto6000r3at,pt25235001,at00t1fwc3,","sources":",us,usauto,pt,at,","types":",dyfi,ground-failure,internal-moment-tensor,internal-origin,losspager,moment-tensor,origin,phase-data,shakemap,","nst":76,"dmin":1.052,"rms":1.34,"gap":120,"magType":"mww","type":"earthquake","title":"M 6.0 - 88 km SW of Acajutla, El Salvador"},"geometry":{"type":"Point","coordinates":[-90.4343,13.0601,17]},"id":"us6000r3at"},
{"type":"Feature","properties":{"mag":6,"place":"55 km SW of Acajutla, El Salvador","time":1620809144539,"updated":1766430394596,"tz":null,"url":"https://earthquake.usgs.gov/earthquakes/eventpage/us7000e2c6","detail":"https://earthquake.usgs.gov/fdsnws/event/1/query?eventid=us7000e2c6&format=geojson","felt":36,"cdi":4.6,"mmi":4.212,"alert":"green","status":"reviewed","tsunami":0,"sig":570,"net":"us","code":"7000e2c6","ids":",us7000e2c6,usauto7000e2c6,pt21132001,at00qszkc7,iscgem625361923,","sources":",us,usauto,pt,at,iscgem,","types":",dyfi,internal-moment-tensor,internal-origin,losspager,moment-tensor,origin,phase-data,shakemap,","nst":null,"dmin":0.845,"rms":1.16,"gap":53,"magType":"mww","type":"earthquake","title":"M 6.0 - 55 km SW of Acajutla, El Salvador"},"geometry":{"type":"Point","coordinates":[-90.2266,13.2742,22]},"id":"us7000e2c6"},
{"type":"Feature","properties":{"mag":6,"place":"40 km WNW of Elfin Cove, Alaska","time":1406285690417,"updated":1689972476893,"tz":null,"url":"https://earthquake.usgs.gov/earthquakes/eventpage/ak0149guzic1","detail":"https://earthquake.usgs.gov/fdsnws/event/1/query?eventid=ak0149guzic1&format=geojson","felt":146,"cdi":5.3,"mmi":5.71,"alert":"green","status":"reviewed","tsunami":0,"sig":631,"net":"ak","code":"0149guzic1","ids":",ak11336413,usb000rx5i,iscgem606920342,ak0149guzic1,","sources":",ak,us,iscgem,ak,","types":",associate,cap,dyfi,losspager,moment-tensor,origin,phase-data,shakemap,","nst":null,"dmin":null,"rms":1,"gap":null,"magType":"mw","type":"earthquake","title":"M 6.0 - 40 km WNW of Elfin Cove, Alaska"},"geometry":{"type":"Point","coordinates":[-136.9711,58.3354,10]},"id":"ak0149guzic1"},
{"type":"Feature","properties":{"mag":6,"place":"12 km SSW of Quepos, Costa Rica","time":1275362775760,"updated":1657982402092,"tz":null,"url":"https://earthquake.usgs.gov/earthquakes/eventpage/usp000hdem","detail":"https://earthquake.usgs.gov/fdsnws/event/1/query?eventid=usp000hdem&format=geojson","felt":347,"cdi":5.8,"mmi":4.886,"alert":null,"status":"reviewed","tsunami":0,"sig":755,"net":"us","code":"p000hdem","ids":",us2010wzae,usp000hdem,choy20100601032615,gcmtc201006010326a,gcmt20100601032615,iscgem14734164,atlas20100601032615,","sources":",us,us,choy,gcmt,gcmt,iscgem,atlas,","types":",associate,dyfi,focal-mechanism,impact-text,moment-tensor,origin,phase-data,shakemap,trump-shakemap,","nst":370,"dmin":null,"rms":1.05,"gap":44.9,"magType":"mwc","type":"earthquake","title":"M 6.0 - 12 km SSW of Quepos, Costa Rica"},"geometry":{"type":"Point","coordinates":[-84.206,9.331,18]},"id":"usp000hdem"},
{"type":"Feature","properties":{"mag":6,"place":"4 km SSW of Grangwav, Haiti","time":1263333641490,"updated":1651527198940,"tz":null,"url":"https://earthquake.usgs.gov/earthquakes/eventpage/usp000h60j","detail":"https://earthquake.usgs.gov/fdsnws/event/1/query?eventid=usp000h60j&format=geojson","felt":null,"cdi":null,"mmi":7.07,"alert":null,"status":"reviewed","tsunami":0,"sig":554,"net":"us","code":"p000h60j","ids":",gcmts201001122200a,usp000h60j,gcmt20100112220041,atlas20100112220041,iscgem14226222,","sources":",gcmt,us,gcmt,atlas,iscgem,","types":",focal-mechanism,impact-text,moment-tensor,origin,phase-data,shakemap,trump-shakemap,","nst":196,"dmin":null,"rms":0.84,"gap":24.1,"magType":"mwc","type":"earthquake","title":"M 6.0 - 4 km SSW of Grangwav, Haiti"},"geometry":{"type":"Point","coordinates":[-72.784,18.387,10]},"id":"usp000h60j"},
{"type":"Feature","properties":{"mag":6,"place":"Galapagos Triple Junction region","time":1255628901890,"updated":1651526623976,"tz":null,"url":"https://earthquake.usgs.gov/earthquakes/eventpage/usp000h30q","detail":"https://earthquake.usgs.gov/fdsnws/event/1/query?eventid=usp000h30q&format=geojson","felt":null,"cdi":null,"mmi":null,"alert":null,"status":"reviewed","tsunami":0,"sig":554,"net":"us","code":"p000h30q","ids":",gcmtc200910151748a,usp000h30q,gcmt20091015174821,iscgem13858218,","sources":",gcmt,us,gcmt,iscgem,","types":",focal-mechanism,impact-text,moment-tensor,origin,phase-data,","nst":305,"dmin":null,"rms":0.96,"gap":33.7,"magType":"mwc","type":"earthquake","title":"M 6.0 - Galapagos Triple Junction region"},"geometry":{"type":"Point","coordinates":[-103.823,3.272,10]},"id":"usp000h30q"},
{"type":"Feature","properties":{"mag":6,"place":"19 km WSW of La Gomera, Guatemala","time":1165179135910,"updated":1657788198301,"tz":null,"url":"https://earthquake.usgs.gov/earthquakes/eventpage/usp000ezf4","detail":"https://earthquake.usgs.gov/fdsnws/event/1/query?eventid=usp000ezf4&format=geojson","felt":148,"cdi":6,"mmi":5.253,"alert":null,"status":"reviewed","tsunami":0,"sig":643,"net":"us","code":"p000ezf4","ids":",usp000ezf4,us2006vva5,choy20061203205215,gcmtc200612032052a,gcmt20061203205215,atlas20061203205215,iscgem11123270,","sources":",us,us,choy,gcmt,gcmt,atlas,iscgem,","types":",associate,dyfi,focal-mechanism,impact-text,moment-tensor,origin,phase-data,shakemap,trump-shakemap,","nst":455,"dmin":null,"rms":0.99,"gap":34.9,"magType":"mwc","type":"earthquake","title":"M 6.0 - 19 km WSW of La Gomera, Guatemala"},"geometry":{"type":"Point","coordinates":[-91.207,13.994,61.2]},"id":"usp000ezf4"},
{"type":"Feature","properties":{"mag":6,"place":"170 km S of George Town, Cayman Islands","time":1094747601740,"updated":1651512407099,"tz":null,"url":"https://earthquake.usgs.gov/earthquakes/eventpage/usp000d3zr","detail":"https://earthquake.usgs.gov/fdsnws/event/1/query?eventid=usp000d3zr&format=geojson","felt":null,"cdi":null,"mmi":null,"alert":null,"status":"reviewed","tsunami":0,"sig":554,"net":"us","code":"p000d3zr","ids":",choy20040909163321,gcmtc090904c,usp000d3zr,gcmt20040909163321,iscgem7400099,","sources":",choy,gcmt,us,gcmt,iscgem,","types":",focal-mechanism,impact-text,moment-tensor,origin,phase-data,","nst":450,"dmin":null,"rms":0.82,"gap":35.7,"magType":"mwb","type":"earthquake","title":"M 6.0 - 170 km S of George Town, Cayman Islands"},"geometry":{"type":"Point","coordinates":[-81.55,17.759,25.2]},"id":"usp000d3zr"},
{"type":"Feature","properties":{"mag":6,"place":"12 km SSW of La Libertad, El Salvador","time":1102951421010,"updated":1657826047316,"tz":null,"url":"https://earthquake.usgs.gov/earthquakes/eventpage/usp000damd","detail":"https://earthquake.usgs.gov/fdsnws/event/1/query?eventid=usp000damd&format=geojson","felt":27,"cdi":5.2,"mmi":5.178,"alert":null,"status":"reviewed","tsunami":0,"sig":568,"net":"us","code":"p000damd","ids":",usp000damd,us2004rzaw,gcmtc121304c,gcmt20041213152341,iscgem7448191,","sources":",us,us,gcmt,gcmt,iscgem,","types":",associate,dyfi,focal-mechanism,impact-text,moment-tensor,origin,phase-data,shakemap,","nst":413,"dmin":null,"rms":1.16,"gap":21.8,"magType":"mwc","type":"earthquake","title":"M 6.0 - 12 km SSW of La Libertad, El Salvador"},"geometry":{"type":"Point","coordinates":[-89.37,13.385,62.3]},"id":"usp000damd"},
{"type":"Feature","properties":{"mag":6,"place":"20 km S of Punta de Burica, Panama","time":1028764754540,"updated":1651507524784,"tz":null,"url":"https://earthquake.usgs.gov/earthquakes/eventpage/usp000b9gc","detail":"https://earthquake.usgs.gov/fdsnws/event/1/query?eventid=usp000b9gc&format=geojson","felt":null,"cdi":null,"mmi":5.694,"alert":null,"status":"reviewed","tsunami":0,"sig":554,"net":"us","code":"p000b9gc","ids":",choy20020807235914,gcmtb080702e,usp000b9gc,gcmt20020807235914,atlas20020807235915,iscgem3236436,","sources":",choy,gcmt,us,gcmt,atlas,iscgem,","types":",focal-mechanism,impact-text,moment-tensor,origin,phase-data,shakemap,trump-shakemap,","nst":413,"dmin":null,"rms":1.17,"gap":null,"magType":"mwb","type":"earthquake","title":"M 6.0 - 20 km S of Punta de Burica, Panama"},"geometry":{"type":"Point","coordinates":[-82.895,7.851,10]},"id":"usp000b9gc"},
{"type":"Feature","properties":{"mag":6,"place":"40 km SSW of La Gomera, Guatemala","time":1036800858080,"updated":1651508160760,"tz":null,"url":"https://earthquake.usgs.gov/earthquakes/eventpage/usp000bh49","detail":"https://earthquake.usgs.gov/fdsnws/event/1/query?eventid=usp000bh49&format=geojson","felt":null,"cdi":null,"mmi":5.233,"alert":null,"status":"reviewed","tsunami":0,"sig":554,"net":"us","code":"p000bh49","ids":",choy20021109001418,gcmtc110902a,usp000bh49,gcmt20021109001418,atlas20021109001417,iscgem6128959,","sources":",choy,gcmt,us,gcmt,atlas,iscgem,","types":",focal-mechanism,impact-text,moment-tensor,origin,phase-data,shakemap,trump-shakemap,","nst":274,"dmin":null,"rms":1.06,"gap":null,"magType":"mwc","type":"earthquake","title":"M 6.0 - 40 km SSW of La Gomera, Guatemala"},"geometry":{"type":"Point","coordinates":[-91.187,13.743,33]},"id":"usp000bh49"},
{"type":"Feature","properties":{"mag":6,"place":"63 km NNE of Savannah Bight, Honduras","time":1040651171360,"updated":1651508458614,"tz":null,"url":"https://earthquake.usgs.gov/earthquakes/eventpage/usp000bm8t","detail":"https://earthquake.usgs.gov/fdsnws/event/1/query?eventid=usp000bm8t&format=geojson","felt":null,"cdi":null,"mmi":null,"alert":null,"status":"reviewed","tsunami":0,"sig":554,"net":"us","code":"p000bm8t","ids":",gcmtb122302c,usp000bm8t,gcmt20021223134611,iscgem6262991,","sources":",gcmt,us,gcmt,iscgem,","types":",focal-mechanism,impact-text,moment-tensor,origin,phase-data,","nst":288,"dmin":null,"rms":0.91,"gap":null,"magType":"mwb","type":"earthquake","title":"M 6.0 - 63 km NNE of Savannah Bight, Honduras"},"geometry":{"type":"Point","coordinates":[-85.578,16.957,33]},"id":"usp000bm8t"},
{"type":"Feature","properties":{"mag":6,"place":"36 km SE of Mountain, Colombia","time":1543117250810,"updated":1651606787110,"tz":null,"url":"https://earthquake.usgs.gov/earthquakes/eventpage/us1000hwaj","detail":"https://earthquake.usgs.gov/fdsnws/event/1/query?eventid=us1000hwaj&format=geojson","felt":6,"cdi":3.1,"mmi":4.824,"alert":"green","status":"reviewed","tsunami":1,"sig":556,"net":"us","code":"1000hwaj","ids":",at00piqcvz,us1000hwaj,pt18329000,iscgem614337142,","sources":",at,us,pt,iscgem,","types":",dyfi,ground-failure,impact-link,losspager,moment-tensor,origin,phase-data,shakemap,","nst":null,"dmin":0.326,"rms":0.94,"gap":25,"magType":"mww","type":"earthquake","title":"M 6.0 - 36 km SE of Mountain, Colombia"},"geometry":{"type":"Point","coordinates":[-81.0931,13.1817,10]},"id":"us1000hwaj"},
{"type":"Feature","properties":{"mag":6,"place":"15 km ESE of Punta de Burica, Panama","time":1417886509020,"updated":1658915417569,"tz":null,"url":"https://earthquake.usgs.gov/earthquakes/eventpage/usc000t49v","detail":"https://earthquake.usgs.gov/fdsnws/event/1/query?eventid=usc000t49v&format=geojson","felt":46,"cdi":7,"mmi":6.314,"alert":"green","status":"reviewed","tsunami":0,"sig":586,"net":"us","code":"c000t49v","ids":",usc000t49v,gcmt20141206172149,iscgem610574386,atlas20141206172149,","sources":",us,gcmt,iscgem,atlas,","types":",cap,dyfi,impact-text,losspager,moment-tensor,origin,phase-data,shakemap,","nst":null,"dmin":2.424,"rms":0.97,"gap":37,"magType":"mww","type":"earthquake","title":"M 6.0 - 15 km ESE of Punta de Burica, Panama"},"geometry":{"type":"Point","coordinates":[-82.7339,7.9824,15]},"id":"usc000t49v"},
{"type":"Feature","properties":{"mag":6,"place":"90 km NNW of Yakutat, Alaska","time":1405597773930,"updated":1689970108684,"tz":null,"url":"https://earthquake.usgs.gov/earthquakes/eventpage/usb000rtp6","detail":"https://earthquake.usgs.gov/fdsnws/event/1/query?eventid=usb000rtp6&format=geojson","felt":8,"cdi":3.2,"mmi":6.25,"alert":"green","status":"reviewed","tsunami":1,"sig":556,"net":"us","code":"b000rtp6","ids":",ak11328120,at00n8uu6n,usb000rtp6,iscgem604848449,ak01493n923u,","sources":",ak,at,us,iscgem,ak,","types":",associate,cap,dyfi,impact-link,losspager,moment-tensor,origin,phase-data,shakemap,","nst":null,"dmin":0.208,"rms":1.26,"gap":71,"magType":"mww","type":"earthquake","title":"M 6.0 - 90 km NNW of Yakutat, Alaska"},"geometry":{"type":"Point","coordinates":[-140.3366,60.2995,10]},"id":"usb000rtp6"},
{"type":"Feature","properties":{"mag":6,"place":"1 km W of Breñón, Panama","time":1557689090373,"updated":1766430105474,"tz":null,"url":"https://earthquake.usgs.gov/earthquakes/eventpage/us70003k3p","detail":"https://earthquake.usgs.gov/fdsnws/event/1/query?eventid=us70003k3p&format=geojson","felt":140,"cdi":8.2,"mmi":6.601,"alert":"yellow","status":"reviewed","tsunami":0,"sig":765,"net":"us","code":"70003k3p","ids":",us70003k3p,iscgem620489784,","sources":",us,iscgem,","types":",dyfi,ground-failure,impact-text,losspager,moment-tensor,origin,phase-data,shakemap,","nst":null,"dmin":0.218,"rms":1.09,"gap":53,"magType":"mww","type":"earthquake","title":"M 6.0 - 1 km W of Breñón, Panama"},"geometry":{"type":"Point","coordinates":[-82.8298,8.625,19]},"id":"us70003k3p"},
{"type":"Feature","properties":{"mag":6,"place":"4 km SSW of Jacó, Costa Rica","time":1598305869259,"updated":1766428855639,"tz":null,"url":"https://earthquake.usgs.gov/earthquakes/eventpage/us7000bcbv","detail":"https://earthquake.usgs.gov/fdsnws/event/1/query?eventid=us7000bcbv&format=geojson","felt":91,"cdi":5.7,"mmi":5.276,"alert":"green","status":"reviewed","tsunami":0,"sig":606,"net":"us","code":"7000bcbv","ids":",us7000bcbv,pt20237000,at00qfl8p6,iscgem618746890,","sources":",us,pt,at,iscgem,","types":",dyfi,ground-failure,internal-origin,losspager,moment-tensor,origin,phase-data,shakemap,","nst":null,"dmin":0.644,"rms":1.26,"gap":84,"magType":"mww","type":"earthquake","title":"M 6.0 - 4 km SSW of Jacó, Costa Rica"},"geometry":{"type":"Point","coordinates":[-84.6376,9.5785,20]},"id":"us7000bcbv"},
{"type":"Feature","properties":{"mag":6,"place":"33 km SSW of Boca Chica, Panama","time":1396455206720,"updated":1658836654568,"tz":null,"url":"https://earthquake.usgs.gov/earthquakes/eventpage/usc000p11f","detail":"https://earthquake.usgs.gov/fdsnws/event/1/query?eventid=usc000p11f&format=geojson","felt":56,"cdi":6,"mmi":5.8,"alert":"green","status":"reviewed","tsunami":0,"sig":587,"net":"us","code":"c000p11f","ids":",usc000p11f,iscgem609948296,atlas20140402161326,","sources":",us,iscgem,atlas,","types":",cap,dyfi,losspager,moment-tensor,origin,phase-data,shakemap,","nst":null,"dmin":2.694,"rms":0.95,"gap":43,"magType":"mww","type":"earthquake","title":"M 6.0 - 33 km SSW of Boca Chica, Panama"},"geometry":{"type":"Point","coordinates":[-82.34,7.94,25]},"id":"usc000p11f"}],"bbox":[-140.3366,3.272,10,-70.673,60.3127,65.3]}